CRE (WAAS/PRN 138)      
1 28868U 05036A   23206.60090331 -.00000060  00000+0  00000+0 0  9996
2 28868   1.5829  89.5719 0002928  25.2837 297.2074  1.00272156 35841
IOR-W (EGNOS/PRN 126)   
1 28899U 05044A   23206.21837260  .00000022  00000+0  00000+0 0  9993
2 28899   3.8403  40.5934 0002793  88.6331 315.9495  1.00272906 64914
QZS-1 (QZSS/PRN 183)    
1 37158U 10045A   23203.00000000 -.00000039  00000+0  00000+0 0  9995
2 37158  42.9121 127.5309 0507632 270.1951  93.1714  0.95400618 47076
GSAT-8 (GAGAN/PRN 127)  
1 37605U 11022A   23206.50328307  .00000099  00000+0  00000+0 0  9994
2 37605   0.0172 101.5184 0002543 154.1191 283.5588  1.00271032 42617
LUCH 5A (SDCM/PRN 140)  
1 37951U 11074B   23206.62503660 -.00000038  00000+0  00000+0 0  9999
2 37951   6.0385  90.4051 0005464  29.8233 214.7998  1.00270847 42447
SES-5 (EGNOS/PRN 136)   
1 38652U 12036A   23206.27825484  .00000048  00000+0  00000+0 0  9999
2 38652   0.0523 291.5810 0002091 189.1882 287.1085  1.00273905 33870
GSAT-10 (GAGAN/PRN 128) 
1 38779U 12051B   23206.58174263 -.00000151  00000+0  00000+0 0  9998
2 38779   0.0472 260.5000 0000360  75.1974 259.7553  1.00272711 39519
LUCH 5B (SDCM/PRN 125)  
1 38977U 12061A   23206.41734459 -.00000126  00000+0  00000+0 0  9992
2 38977   8.1644  59.4725 0005631  81.3210 296.0270  1.00272421 39019
ASTRA 5B (EGNOS/PRN 123)
1 39617U 14011B   23206.49700720  .00000152  00000+0  00000+0 0  9991
2 39617   0.0421 334.4792 0002328 165.7975   5.0893  1.00273579 34064
LUCH 5V (SDCM/PRN 141)  
1 39727U 14023A   23206.58284861 -.00000255  00000+0  00000+0 0  9994
2 39727   2.4720  77.4436 0002896  86.0429  84.0642  1.00268349 33755
GSAT-15 (GAGAN/PRN 139) 
1 41028U 15065A   23206.58258712 -.00000243  00000+0  00000+0 0  9991
2 41028   0.0691 270.2530 0003527 180.5609 155.4242  1.00269933 28194
E 117 W B (WAAS/PRN 131)
1 41589U 16038B   23205.58007424  .00000002  00000+0  00000+0 0  9997
2 41589   0.0085 201.0047 0000154  80.6002 112.2445  1.00270542 26055
SES-15 (WAAS/PRN 133)   
1 42709U 17026A   23206.38297625  .00000074  00000+0  00000+0 0  9992
2 42709   0.0155  27.7534 0000888 134.0034 149.7848  1.00272547 23534
QZS-2 (QZSS/PRN 184)    
1 42738U 17028A   23206.45726391 -.00000109  00000+0  00000+0 0  9991
2 42738  41.1066 258.4506 0756507 269.5568  81.1417  1.00275583 22530
QZS-3 (QZSS/PRN 189)    
1 42917U 17048A   23206.60328115 -.00000333  00000+0  00000+0 0  9990
2 42917   0.0647 217.3869 0001719 280.0746 149.8289  1.00271341 21657
QZS-4 (QZSS/PRN 185)    
1 42965U 17062A   23206.30283532 -.00000312  00000+0  00000+0 0  9996
2 42965  40.6520 356.9665 0746061 268.6193 283.9694  1.00292943 21200
BEIDOU-3 G1 (PRN 130)   
1 43683U 18085A   23206.52015583 -.00000264  00000+0  00000+0 0  9999
2 43683   1.4269 127.3262 0003459 338.2859 164.6753  1.00271375 17455
BEIDOU-3 G2 (PRN 144)   
1 45344U 20017A   23206.58146324 -.00000128  00000+0  00000+0 0  9996
2 45344   2.0257  14.0300 0003319 123.2244  95.1423  1.00271352 12659
BEIDOU-3 G3 (PRN 143)   
1 45807U 20040A   23206.58598654 -.00000339  00000+0  00000+0 0  9997
2 45807   0.6575 335.7976 0005295  16.4890 272.2213  1.00272151 11468
GALAXY 30 (WAAS/PRN 135)
1 46114U 20056C   23206.59083929  .00000052  00000+0  00000+0 0  9992
2 46114   0.0170  67.8915 0002081  51.3771 271.4702  1.00271037 10686
